BEIDOU-3 G1 (C59)
1 43683U 18085A   24330.59137977 -.00000260  00000+0  00000+0 0  9993
2 43683   2.5909 103.8580 0001442  53.7064 260.4041  1.00269905 22353
COSMOS 2529 (757)
1 43687U 18086A   24329.96999092  .00000015  00000+0  00000+0 0  9998
2 43687  64.2931 211.8316 0007756 260.7737  99.2131  2.13102078 47150
BEIDOU-3 M17 (C36)
1 43706U 18093A   24330.13614151  .00000036  00000+0  00000+0 0  9992
2 43706  54.1968 201.6068 0006930 298.7087  61.3073  1.86228560 40942
BEIDOU-3 M18 (C37)
1 43707U 18093B   24330.00016205  .00000034  00000+0  00000+0 0  9993
2 43707  54.1975 201.6031 0006585 337.8398  22.2169  1.86230106 40937
GPS BIII-1  (PRN 04)
1 43873U 18109A   24330.38928553  .00000055  00000+0  00000+0 0  9997
2 43873  55.3680 114.6556 0032069 192.4419 350.6843  2.00562075 43667
BEIDOU-3 IGSO-1 (C38)
1 44204U 19023A   24330.61365300 -.00000231  00000+0  00000+0 0  9990
2 44204  57.8809  43.5411 0025168 212.1480 146.7240  1.00253752  1506
BEIDOU-2 G8 (C01)
1 44231U 19027A   24330.55743743 -.00000232  00000+0  00000+0 0  9999
2 44231   1.8782  74.7025 0004882 200.4987 134.9223  1.00267707 20375
COSMOS 2534 (758)
1 44299U 19030A   24329.76765469  .00000012  00000+0  00000+0 0  9992
2 44299  64.3662 211.8069 0009998 286.7538  52.2394  2.13102183 42785
BEIDOU-3 IGSO-2 (C39)
1 44337U 19035A   24322.83050358 -.00000064  00000+0  00000+0 0  9993
2 44337  55.1861 163.9216 0034767 201.0257 107.1426  1.00249229 19887
GPS BIII-2  (PRN 18)
1 44506U 19056A   24330.50519520 -.00000086  00000+0  00000+0 0  9992
2 44506  55.8255 353.7008 0048550 193.9056 337.3329  2.00558380 38666
BEIDOU-3 M24 (C46)
1 44542U 19061A   24330.07019170  .00000035  00000+0  00000+0 0  9999
2 44542  54.4247 201.9272 0009050  13.5305 346.5790  1.86229512 35199
BEIDOU-3 M23 (C45)
1 44543U 19061B   24330.47190892  .00000042  00000+0  00000+0 0  9993
2 44543  54.4228 201.8823 0005740   9.6189 172.4186  1.86229757 35206
BEIDOU-3 IGSO-3 (C40)
1 44709U 19073A   24330.29290734 -.00000206  00000+0  00000+0 0  9999
2 44709  55.7796 287.0160 0040245 190.6350 169.2234  1.00253048 18759
BEIDOU-3 M22 (C44)
1 44793U 19078A   24330.45142638 -.00000078  00000+0  00000+0 0  9991
2 44793  54.4382 319.7540 0005439  11.0728 348.9468  1.86232154 34061
BEIDOU-3 M21 (C43)
1 44794U 19078B   24329.50690245 -.00000077  00000+0  00000+0 0  9997
2 44794  54.4124 319.7595 0003643 354.8261   5.1782  1.86232643 34043
COSMOS 2544 (759)
1 44850U 19088A   24330.28473361  .00000010  00000+0  00000+0 0  9992
2 44850  65.2643  92.7631 0012766 248.0461 111.8057  2.13102051 38597
BEIDOU-3 M19 (C41)
1 44864U 19090A   24329.76209007 -.00000027  00000+0  00000+0 0  9994
2 44864  56.0617  81.6925 0016732 278.7586  84.4084  1.86231657 33638
BEIDOU-3 M20 (C42)
1 44865U 19090B   24329.77859912 -.00000027  00000+0  00000+0 0  9992
2 44865  56.0634  81.7255 0014079 292.1696 171.7602  1.86231607 33618
BEIDOU-3 G2 (C60)
1 45344U 20017A   24330.73243769 -.00000124  00000+0  00000+0 0  9999
2 45344   2.5399  35.2207 0004407 219.0011 154.6460  1.00271370 17575
COSMOS 2545 (760)
1 45358U 20018A   24329.54300565 -.00000045  00000+0  00000+0 0  9992
2 45358  64.6743 332.3701 0012204 249.2658 110.6343  2.13102639 36522
BEIDOU-3 G3 (C61)
1 45807U 20040A   24330.60676536 -.00000337  00000+0  00000+0 0  9993
2 45807   1.0957  56.4543 0003408 300.7035  36.8976  1.00274212 16362
GPS BIII-3  (PRN 23)
1 45854U 20041A   24330.30112413 -.00000087  00000+0  00000+0 0  9994
2 45854  56.2566  51.1105 0049793 196.6380 125.7145  2.00570073 32628
GALAXY 30 (WAAS/PRN 135)
1 46114U 20056C   24330.68738977  .00000054  00000+0  00000+0 0  9993
2 46114   0.0176 330.9987 0002092 271.8675 304.7132  1.00272209 15706
COSMOS 2547 (705K)
1 46805U 20075A   24330.19879340  .00000019  00000+0  00000+0 0  9998
2 46805  64.5958 211.4817 0006306 235.1004 124.9158  2.13102907 31780
GPS BIII-4  (PRN 14)
1 46826U 20078A   24330.68841170 -.00000024  00000+0  00000+0 0  9995
2 46826  54.1216 233.8495 0050934 198.6117  17.0858  2.00560391 30092
GPS BIII-5  (PRN 11)
1 48859U 21054A   24330.13342240 -.00000089  00000+0  00000+0 0  9993
2 48859  55.3540 355.2926 0019279 228.0409 131.3759  2.00575429 25339
QZS-1R (QZSS/PRN 196)
1 49336U 21096A   24329.63041441 -.00000231  00000+0  00000+0 0  9991
2 49336  36.2806  88.1032 0751162 270.9172  67.8242  1.00268065 11294
GSAT0223 (GALILEO 27)
1 49809U 21116A   24329.99983903 -.00000084  00000+0  00000+0 0  9992
2 49809  57.2881 357.0344 0004311 238.0354 119.1453  1.70476319 18475
GSAT0224 (GALILEO 28)
1 49810U 21116B   24328.06645579 -.00000091  00000+0  00000+0 0  9993
2 49810  57.2885 357.0850 0004981 250.0895 113.0394  1.70476234 18473
COSMOS 2557 (706K)
1 52984U 22075A   24329.89550548 -.00000046  00000+0  00000+0 0  9997
2 52984  64.6050 334.4730 0014100 277.0937  82.7796  2.13102115 18583
COSMOS 2559 (707K)
1 54031U 22130A   24330.30818121 -.00000046  00000+0  00000+0 0  9996
2 54031  64.5767 334.5705 0008252 232.9382 127.0203  2.13101462 16566
COSMOS 2564 (761)
1 54377U 22161A   24330.02911891  .00000016  00000+0  00000+0 0  9996
2 54377  64.7372 211.6211 0008398 211.1929 148.8321  2.13102259 15507
GPS BIII-6  (PRN 28)
1 55268U 23009A   24330.36253424  .00000093  00000+0  00000+0 0  9991
2 55268  55.0859 170.8492 0002532  72.7155 133.5861  2.00553050 13832
BEIDOU-3 G4 (C62)
1 56564U 23066A   24330.54480170 -.00000096  00000+0  00000+0 0  9998
2 56564   1.7232 289.0368 0004450 258.4888 233.6472  1.00271871  5699
IRNSS-1J (NVS-01)
1 56759U 23076A   24330.68243741 -.00000319  00000+0  00000+0 0  9999
2 56759   3.5848 262.4949 0007806 357.5434 180.3712  1.00271860  5507
COSMOS 2569 (703K)
1 57517U 23114A   24329.10660289  .00000015  00000+0  00000+0 0  9992
2 57517  64.9928  91.8942 0009434 289.6384  70.2493  2.13104117 10116
BEIDOU-3 M28 (C50)
1 58654U 23207A   24329.58988781 -.00000027  00000+0  00000+0 0  9994
2 58654  55.2467  81.6027 0001866 240.3200 119.6473  1.86232084  6231
BEIDOU-3 M26 (C48)
1 58655U 23207B   24329.92615808 -.00000029  00000+0  00000+0 0  9992
2 58655  55.2490  81.5770 0003315 232.5869 127.3683  1.86231574  6228
GSAT0225 (GALILEO 29)
1 59598U 24079A   24327.78868890  .00000049  00000+0  00000+0 0  9991
2 59598  54.7745 117.0687 0002276 159.7484  23.9372  1.70474912  3560
GSAT0227 (GALILEO 30)
1 59600U 24079C   24330.01902235  .00000053  00000+0  00000+0 0  9992
2 59600  54.7804 117.0073 0003637 118.6171 241.4040  1.70474796  3668
GSAT0232 (GALILEO 32)
1 61182U 24167A   24321.21686440 -.00000004  00000+0  00000+0 0  9994
2 61182  55.3884 237.1378 0015743 276.0571  83.7985  1.73178105  1028
GSAT0226 (GALILEO 31)
1 61183U 24167B   24321.20557931 -.00000004  00000+0  00000+0 0  9996
2 61183  55.3850 237.1721 0033834  97.1093 263.3097  1.71381460  1002
